NORAD_CAT_ID,OBJECT_NAME,OBJECT_TYPE,EPOCH,MEAN_MOTION,ECCENTRICITY,INCLINATION,RA_OF_ASC_NODE,ARG_OF_PERICENTER,MEAN_ANOMALY,BSTAR,MEAN_MOTION_DOT,MEAN_MOTION_DDOT,TLE_LINE0,TLE_LINE1,TLE_LINE2,SEMIMAJOR_AXIS,PERIOD,APOGEE,PERIGEE,DECAYED
51151.0,STARLINK-3361,PAYLOAD,2022-11-15 19:01:42,15.08839614,0.0002459,53.2176,340.5478,30.8735,329.2401,0.00017502,2.498e-05,0.0,0 STARLINK-3361,1 51151U 22005AZ  22319.79285195  .00002498  00000-0  17502-3 0  9996,2 51151  53.2176 340.5478 0002459  30.8735 329.2401 15.08839614 45944,6917.882,95.438,541.448,538.045,0.0
51151.0,STARLINK-3361,PAYLOAD,2022-11-16 01:23:14,15.0884093,0.0002392,53.2174,339.3577,30.4458,329.6673,0.00025974,3.848e-05,0.0,0 STARLINK-3361,1 51151U 22005AZ  22320.05781113  .00003848  00000-0  25974-3 0  9990,2 51151  53.2174 339.3577 0002392  30.4458 329.6673 15.08840930 47098,6917.878000000002,95.437,541.3969999999998,538.0880000000002,0.0
51151.0,STARLINK-3361,PAYLOAD,2022-11-16 07:44:47,15.08848893,0.0002405,53.2174,338.1684,31.1861,328.9273,0.00033569,5.06e-05,0.0,0 STARLINK-3361,1 51151U 22005AZ  22320.32276720  .00005060  00000-0  33569-3 0  9990,2 51151  53.2174 338.1684 0002405  31.1861 328.9273 15.08848893 46021,6917.853,95.437,541.382,538.054,0.0
51151.0,STARLINK-3361,PAYLOAD,2022-11-17 01:14:01,15.08843943,0.0002529,53.2163,334.8979,33.8496,326.2657,-1.3273e-05,-5e-06,0.0,0 STARLINK-3361,1 51151U 22005AZ  22321.05140776 -.00000500  00000-0 -13273-4 0  9999,2 51151  53.2163 334.8979 0002529  33.8496 326.2657 15.08843943 47242,6917.868,95.437,541.4830000000002,537.984,0.0
51151.0,STARLINK-3361,PAYLOAD,2022-11-17 07:35:34,15.08839289,0.0002511,53.217,333.7085,33.4785,326.6365,-2.4104e-05,-6.72e-06,0.0,0 STARLINK-3361,1 51151U 22005AZ  22321.31637017 -.00000672  00000-0 -24104-4 0  9992,2 51151  53.2170 333.7085 0002511  33.4785 326.6365 15.08839289 46173,6917.8830000000025,95.438,541.485,538.01,0.0
51151.0,STARLINK-3361,PAYLOAD,2022-11-18 05:50:58,15.0884288,0.0002516,53.2171,329.5448,31.028,329.086,-4.6462e-06,-3.62e-06,0.0,0 STARLINK-3361,1 51151U 22005AZ  22322.24372762 -.00000362  00000-0 -46462-5 0  9996,2 51151  53.2171 329.5448 0002516  31.0280 329.0860 15.08842880 47426,6917.871999999999,95.437,541.477,537.996,0.0
51151.0,STARLINK-3361,PAYLOAD,2022-11-18 07:26:21,15.08843534,0.0002566999999999,53.2176,329.2478,36.7534,323.3633,-2.2001e-05,-6.39e-06,0.0,0 STARLINK-3361,1 51151U 22005AZ  22322.30996870 -.00000639  00000-0 -22001-4 0  9994,2 51151  53.2176 329.2478 0002567  36.7534 323.3633 15.08843534 46321,6917.87,95.437,541.51,537.9590000000002,0.0
51151.0,STARLINK-3361,PAYLOAD,2022-11-19 00:55:35,15.08835913,0.0002604,53.2175,325.9764,29.8448,330.2692,0.00017912,2.563e-05,0.0,0 STARLINK-3361,1 51151U 22005AZ  22323.03860677  .00002563  00000-0  17912-3 0  9990,2 51151  53.2175 325.9764 0002604  29.8448 330.2692 15.08835913 46436,6917.893,95.438,541.559,537.956,0.0
51151.0,STARLINK-3361,PAYLOAD,2022-11-19 16:49:27,15.0884024,0.0002591,53.2175,323.0025,31.5057,328.6090000000001,8.585899999999999e-05,1.078e-05,0.0,0 STARLINK-3361,1 51151U 22005AZ  22323.70100740  .00001078  00000-0  85859-4 0  9998,2 51151  53.2175 323.0025 0002591  31.5057 328.6090 15.08840240 47642,6917.88,95.438,541.5369999999998,537.952,0.0
51151.0,STARLINK-3361,PAYLOAD,2022-11-20 07:07:55,15.08836525,0.0002458,53.2175,320.3266,32.6962,327.4182,4.5791e-05,4.4e-06,0.0,0 STARLINK-3361,1 51151U 22005AZ  22324.29717083  .00000440  00000-0  45791-4 0  9990,2 51151  53.2175 320.3266 0002458  32.6962 327.4182 15.08836525 46625,6917.891,95.438,541.456,538.056,0.0
51151.0,STARLINK-3361,PAYLOAD,2022-11-20 16:40:14,15.08836862,0.0002267,53.2179,318.5426,36.5553,323.5593,4.822e-05,4.79e-06,0.0,0 STARLINK-3361,1 51151U 22005AZ  22324.69461095  .00000479  00000-0  48220-4 0  9995,2 51151  53.2179 318.5426 0002267  36.5553 323.5593 15.08836862 47799,6917.89,95.438,541.323,538.187,0.0
51151.0,STARLINK-3361,PAYLOAD,2022-11-21 08:34:06,15.08837165,0.0002419,53.218,315.5681,32.2354,327.8785,-2.9153e-05,-7.52e-06,0.0,0 STARLINK-3361,1 51151U 22005AZ  22325.35701391 -.00000752  00000-0 -29153-4 0  9995,2 51151  53.2180 315.5681 0002419  32.2354 327.8785 15.08837165 46787,6917.889,95.438,541.427,538.081,0.0
51151.0,STARLINK-3361,PAYLOAD,2022-11-21 16:31:01,15.088321100000002,0.0002251,53.2179,314.0816,34.8928,325.2212,7.532e-05,9.1e-06,0.0,0 STARLINK-3361,1 51151U 22005AZ  22325.68821550  .00000910  00000-0  75320-4 0  9992,2 51151  53.2179 314.0816 0002251  34.8928 325.2212 15.08832110 46836,6917.905,95.438,541.327,538.212,0.0
51151.0,STARLINK-3361,PAYLOAD,2022-11-22 05:14:06,15.08840493,0.0002477,53.2177,311.7025,32.1319,327.9824,0.00016454,2.331e-05,0.0,0 STARLINK-3361,1 51151U 22005AZ  22326.21812918  .00002331  00000-0  16454-3 0  9991,2 51151  53.2177 311.7025 0002477  32.1319 327.9824 15.08840493 48029,6917.879,95.438,541.457,538.03,0.0
51151.0,STARLINK-3361,PAYLOAD,2022-11-22 06:49:29,15.08840748,0.0002501,53.2179,311.4054,33.01,327.1048,0.00018258,2.619e-05,0.0,0 STARLINK-3361,1 51151U 22005AZ  22326.28436889  .00002619  00000-0  18258-3 0  9990,2 51151  53.2179 311.4054 0002501  33.0100 327.1048 15.08840748 46926,6917.878000000002,95.438,541.4730000000002,538.013,0.0
51151.0,STARLINK-3361,PAYLOAD,2022-11-22 16:21:48,15.08841906,0.0002549,53.2179,309.6211,33.4844,326.6308,0.00018299,2.625e-05,0.0,0 STARLINK-3361,1 51151U 22005AZ  22326.68180682  .00002625  00000-0  18299-3 0  9993,2 51151  53.2179 309.6211 0002549  33.4844 326.6308 15.08841906 46987,6917.875,95.437,541.503,537.976,0.0
51151.0,STARLINK-3361,PAYLOAD,2022-11-23 08:15:40,15.08833586,0.0002576,53.2178,306.65,30.647,329.4672,0.00010104,1.32e-05,0.0,0 STARLINK-3361,1 51151U 22005AZ  22327.34421604  .00001320  00000-0  10104-3 0  9997,2 51151  53.2178 306.6500 0002576  30.6470 329.4672 15.08833586 48193,6917.9,95.438,541.547,537.9830000000002,0.0
51151.0,STARLINK-3361,PAYLOAD,2022-11-23 16:12:36,15.08830855,0.0002845,53.2182,305.1622,32.2083,327.9082,3.4579e-05,2.62e-06,0.0,0 STARLINK-3361,1 51151U 22005AZ  22327.67542205  .00000262  00000-0  34579-4 0  9991,2 51151  53.2182 305.1622 0002845  32.2083 327.9082 15.08830855 47131,6917.908,95.438,541.741,537.805,0.0
51151.0,STARLINK-3361,PAYLOAD,2022-11-24 08:06:27,15.08842236,0.0002546,53.2174,302.1867,35.37300000000001,324.7431,2.8848e-05,1.71e-06,0.0,0 STARLINK-3361,1 51151U 22005AZ  22328.33781538  .00000171  00000-0  28848-4 0  9990,2 51151  53.2174 302.1867 0002546  35.3730 324.7431 15.08842236 47231,6917.874,95.437,541.5,537.977,0.0
51151.0,STARLINK-3361,PAYLOAD,2022-11-25 04:46:28,15.08839043,0.00026,53.217,298.3218,32.7643,327.351,4.9022e-05,4.92e-06,0.0,0 STARLINK-3361,1 51151U 22005AZ  22329.19893535  .00000492  00000-0  49022-4 0  9999,2 51151  53.2170 298.3218 0002600  32.7643 327.3510 15.08839043 48474,6917.8830000000025,95.438,541.547,537.95,0.0
51151.0,STARLINK-3361,PAYLOAD,2022-11-25 07:57:14,15.08833378,0.0002585,53.2173,297.7266,34.2082,325.9076,9.6419e-05,1.246e-05,0.0,0 STARLINK-3361,1 51151U 22005AZ  22329.33141823  .00001246  00000-0  96419-4 0  9991,2 51151  53.2173 297.7266 0002585  34.2082 325.9076 15.08833378 47384,6917.901,95.438,541.554,537.977,0.0
51151.0,STARLINK-3361,PAYLOAD,2022-11-26 07:48:01,15.08842665,0.0002622,53.2177,293.2664,33.9607,326.1553,5.3041e-05,5.56e-06,0.0,0 STARLINK-3361,1 51151U 22005AZ  22330.32501526  .00000556  00000-0  53041-4 0  9999,2 51151  53.2177 293.2664 0002622  33.9607 326.1553 15.08842665 48644,6917.871999999999,95.437,541.5509999999998,537.923,0.0
51151.0,STARLINK-3361,PAYLOAD,2022-11-26 20:31:05,15.08849488,0.0002628,53.2182,290.8872,32.9548,327.1607,0.00012543,1.709e-05,0.0,0 STARLINK-3361,1 51151U 22005AZ  22330.85492710  .00001709  00000-0  12543-3 0  9993,2 51151  53.2182 290.8872 0002628  32.9548 327.1607 15.08849488 47610,6917.851,95.437,541.534,537.898,0.0
51151.0,STARLINK-3361,PAYLOAD,2022-11-27 06:03:25,15.08835603,0.0002546,53.2174,289.1031,34.5208,325.5949,2.8521e-05,1.65e-06,0.0,0 STARLINK-3361,1 51151U 22005AZ  22331.25237793  .00000165  00000-0  28521-4 0  9995,2 51151  53.2174 289.1031 0002546  34.5208 325.5949 15.08835603 48783,6917.894,95.438,541.52,537.998,0.0
51151.0,STARLINK-3361,PAYLOAD,2022-11-28 07:29:35,15.08839713,0.0002639,53.2179,284.3457,34.539,325.5773,5.5335e-05,5.92e-06,0.0,0 STARLINK-3361,1 51151U 22005AZ  22332.31221815  .00000592  00000-0  55335-4 0  9998,2 51151  53.2179 284.3457 0002639  34.5390 325.5773 15.08839713 48941,6917.880999999999,95.438,541.572,537.9209999999998,0.0
51151.0,STARLINK-3361,PAYLOAD,2022-11-29 05:44:59,15.0883425,0.0002673,53.2174,280.1824,36.1027,324.0145,0.00013306,1.83e-05,0.0,0 STARLINK-3361,1 51151U 22005AZ  22333.23958121  .00001830  00000-0  13306-3 0  9994,2 51151  53.2174 280.1824 0002673  36.1027 324.0145 15.08834250 47971,6917.898,95.438,541.612,537.914,0.0
51151.0,STARLINK-3361,PAYLOAD,2022-11-29 13:41:55,15.08841085,0.0002783,53.218,278.6955,35.4238,324.6939,0.00022915,3.361e-05,0.0,0 STARLINK-3361,1 51151U 22005AZ  22333.57077585  .00003361  00000-0  22915-3 0  9994,2 51151  53.2180 278.6955 0002783  35.4238 324.6939 15.08841085 49134,6917.877,95.437,541.6669999999998,537.817,0.0
51151.0,STARLINK-3361,PAYLOAD,2022-11-30 05:35:47,15.08833186,0.0002471,53.2182,275.7224,29.8448,330.2684,1.9418e-05,2.1e-07,0.0,0 STARLINK-3361,1 51151U 22005AZ  22334.23318726  .00000021  00000-0  19418-4 0  9998,2 51151  53.2182 275.7224 0002471  29.8448 330.2684 15.08833186 49231,6917.901,95.438,541.476,538.057,0.0
51151.0,STARLINK-3361,PAYLOAD,2022-11-30 19:54:18,15.08804797,0.000222,53.219,273.0438,33.8734,326.24,-0.00016654,-2.935e-05,0.0,0 STARLINK-3361,1 51151U 22005AZ  22334.82937976 -.00002935  00000-0 -16654-3 0  9993,2 51151  53.2190 273.0438 0002220  33.8734 326.2400 15.08804797 48217,6917.988,95.44,541.389,538.317,0.0
